{"type": "FeatureCollection", "name": "Cancun", "crs": {"type": "name", "properties": {"name": "urn:ogc:def:crs:OGC:1.3:CRS84"}}, "features": [{"type": "Feature", "properties": {"Name": null}, "geometry": {"type": "MultiPolygon", "coordinates": [[[[-86.80650851857635, 21.17771565984267, 0.0], [-86.80642680225095, 21.1777495777908, 0.0], [-86.80641985606199, 21.17772552847638, 0.0], [-86.80630826380518, 21.17748383797585, 0.0], [-86.80627030573807, 21.17706411391323, 0.0], [-86.8060472154986, 21.17657351146188, 0.0], [-86.8059956898572, 21.17623979100513, 0.0], [-86.80588417453183, 21.17603044966463, 0.0], [-86.80586867613208, 21.17564518226277, 0.0], [-86.80575924615098, 21.17540183685918, 0.0], [-86.80553662018116, 21.17463097736626, 0.0], [-86.80547941456696, 21.17389265329638, 0.0], [-86.80519096685302, 21.17362963730315, 0.0], [-86.80502342134666, 21.17339952653863, 0.0], [-86.80494063357685, 21.17189116319017, 0.0], [-86.80456764864847, 21.17070415463024, 0.0], [-86.80442345931412, 21.17019214978896, 0.0], [-86.80404407743845, 21.16881334792879, 0.0], [-86.80391425823328, 21.1684637675695, 0.0], [-86.80373311044903, 21.16820620486633, 0.0], [-86.80338058588956, 21.16724567583566, 0.0], [-86.80294101545975, 21.16689201926547, 0.0], [-86.80282544689973, 21.16671918163638, 0.0], [-86.80256077898711, 21.16555078251324, 0.0], [-86.80220652625026, 21.16285568339257, 0.0], [-86.80213123632822, 21.16268415619173, 0.0], [-86.80158355023664, 21.16190783204632, 0.0], [-86.80133923330735, 21.16165459848724, 0.0], [-86.80124367043938, 21.16108615616167, 0.0], [-86.80128529156143, 21.16081399406461, 0.0], [-86.80127334384744, 21.16054786527748, 0.0], [-86.80120191664547, 21.16024278139384, 0.0], [-86.80100751671759, 21.15993882640483, 0.0], [-86.80079426583113, 21.1594460552633, 0.0], [-86.80060559214505, 21.15884449179837, 0.0], [-86.80041552055847, 21.15851072539613, 0.0], [-86.80034321304369, 21.15827356716428, 0.0], [-86.80011582857283, 21.15776888178324, 0.0], [-86.79988519859418, 21.15726598561129, 0.0], [-86.7996296532173, 21.157037523279, 0.0], [-86.79954374174253, 21.1569041145636, 0.0], [-86.79953376351318, 21.15691105992773, 0.0], [-86.79921649470785, 21.15656961674464, 0.0], [-86.79920429451379, 21.1565103251855, 0.0], [-86.79903210327751, 21.15629264574095, 0.0], [-86.79891928730366, 21.15613472074331, 0.0], [-86.79878707175722, 21.15599040868445, 0.0], [-86.79868216437224, 21.1558271230097, 0.0], [-86.79858449605082, 21.15565880142064, 0.0], [-86.79847577327254, 21.15549815560207, 0.0], [-86.79835890878809, 21.1553432859405, 0.0], [-86.79824038414797, 21.15520060119228, 0.0], [-86.798114851108, 21.15506293492349, 0.0], [-86.7980794446364, 21.1550200714747, 0.0], [-86.79790004471593, 21.15485281257973, 0.0], [-86.79766110268662, 21.15464725045185, 0.0], [-86.79751174212208, 21.15447703555467, 0.0], [-86.79746713594444, 21.15444087835924, 0.0], [-86.7972569273741, 21.15428836771088, 0.0], [-86.79704448088066, 21.1540836546085, 0.0], [-86.7969463707324, 21.15393991496195, 0.0], [-86.79681483079797, 21.15381062881124, 0.0], [-86.79678147398505, 21.15376435064283, 0.0], [-86.79662659432736, 21.15363662641579, 0.0], [-86.79650809770303, 21.15350806282662, 0.0], [-86.79631821934257, 21.15330470012294, 0.0], [-86.79613422368104, 21.15312390166881, 0.0], [-86.79609504933656, 21.15308310125556, 0.0], [-86.79599143185486, 21.15293625695504, 0.0], [-86.79586354609278, 21.15277235469436, 0.0], [-86.79574167868105, 21.15263135648997, 0.0], [-86.79560685373661, 21.15250228670315, 0.0], [-86.79546318885495, 21.15238108940879, 0.0], [-86.79530906969522, 21.15226969250613, 0.0], [-86.79514830783995, 21.15211498320256, 0.0], [-86.79498379516528, 21.15198808545149, 0.0], [-86.7946992005204, 21.151686088117, 0.0], [-86.79459888322785, 21.15152455993412, 0.0], [-86.79435674374788, 21.15137549213206, 0.0], [-86.79410959276376, 21.1511767139332, 0.0], [-86.79380555515593, 21.15100335685411, 0.0], [-86.7935782820823, 21.15084429329347, 0.0], [-86.79339687582245, 21.15077562332208, 0.0], [-86.79303127345202, 21.1506871900202, 0.0], [-86.79241731949074, 21.15049326393041, 0.0], [-86.79236832072964, 21.15018960937779, 0.0], [-86.79231272390054, 21.1500635362793, 0.0], [-86.7922077539544, 21.14986215409486, 0.0], [-86.79211271828969, 21.14970840549149, 0.0], [-86.79197183816832, 21.14956235217733, 0.0], [-86.7917898854242, 21.1494658759528, 0.0], [-86.79144532684553, 21.14914254217225, 0.0], [-86.7912252947547, 21.14888140472662, 0.0], [-86.79074163124811, 21.14830393556677, 0.0], [-86.79053933838608, 21.14809036923067, 0.0], [-86.79017669899542, 21.14778520643844, 0.0], [-86.78995884544689, 21.14769736081682, 0.0], [-86.78995553203373, 21.14767620222063, 0.0], [-86.78947121257112, 21.14766543668181, 0.0], [-86.78881769697813, 21.1476173812915, 0.0], [-86.7885114046239, 21.14738227771453, 0.0], [-86.7883280317399, 21.14712156987562, 0.0], [-86.78806589173305, 21.14644538668693, 0.0], [-86.7880231434715, 21.14622307460295, 0.0], [-86.78810302102349, 21.1459143775169, 0.0], [-86.78819320093001, 21.14563119745062, 0.0], [-86.7882726547395, 21.14537828010268, 0.0], [-86.78828429082014, 21.14518362144385, 0.0], [-86.78801040041296, 21.14524257476547, 0.0], [-86.78792670855678, 21.14523486093569, 0.0], [-86.78801879449782, 21.14424345556749, 0.0], [-86.78802505495213, 21.14424375485589, 0.0], [-86.78796281877392, 21.14386900811077, 0.0], [-86.7870086884645, 21.14348880544187, 0.0], [-86.7871848745424, 21.14407014452945, 0.0], [-86.78684537754533, 21.14426459511485, 0.0], [-86.78639094453476, 21.14446228328984, 0.0], [-86.7862901572864, 21.14450602269985, 0.0], [-86.78588958836002, 21.14452771721771, 0.0], [-86.78579990366414, 21.14458773414742, 0.0], [-86.78557305387803, 21.14473954071498, 0.0], [-86.785173469507, 21.14477745009973, 0.0], [-86.78510774276639, 21.14477495245132, 0.0], [-86.78501329657996, 21.14477281803731, 0.0], [-86.78452813745577, 21.14475548698924, 0.0], [-86.7840341475514, 21.14495404771562, 0.0], [-86.78383956360753, 21.14497531529675, 0.0], [-86.78363583756031, 21.14494541408764, 0.0], [-86.78335977716274, 21.14502512835064, 0.0], [-86.78290110705457, 21.14502141995373, 0.0], [-86.78279201046762, 21.14504515117995, 0.0], [-86.7822872603843, 21.14501858031129, 0.0], [-86.7819303601673, 21.14523209598655, 0.0], [-86.78157363394787, 21.14514400572654, 0.0], [-86.78116511397081, 21.14509958785332, 0.0], [-86.78072213541708, 21.14512783767376, 0.0], [-86.78041928593892, 21.14530126833144, 0.0], [-86.78013340310645, 21.14539183732494, 0.0], [-86.77993268058968, 21.14589722246172, 0.0], [-86.77963258805106, 21.14589408562817, 0.0], [-86.77915300641043, 21.14563158186341, 0.0], [-86.77879284143748, 21.14570882228094, 0.0], [-86.7782991955164, 21.14552956701084, 0.0], [-86.7780971635998, 21.14547968603541, 0.0], [-86.7778282581495, 21.1454795953169, 0.0], [-86.77758747721704, 21.14547951373256, 0.0], [-86.77732743261501, 21.14547942624374, 0.0], [-86.77719009048982, 21.14547937940009, 0.0], [-86.77706829039519, 21.14541984323422, 0.0], [-86.77683237654927, 21.145304529417, 0.0], [-86.77640530653437, 21.14509577828901, 0.0], [-86.77616598166125, 21.14497879559924, 0.0], [-86.77596150470642, 21.14481410626451, 0.0], [-86.77541336348689, 21.14437276394382, 0.0], [-86.77520949148372, 21.14420819733792, 0.0], [-86.77481136501724, 21.14416443720276, 0.0], [-86.77429133861565, 21.14377452795495, 0.0], [-86.77387496293748, 21.14332226152077, 0.0], [-86.77330248551796, 21.14302087421422, 0.0], [-86.77310336857907, 21.14300288738555, 0.0], [-86.77271989814517, 21.14296824631502, 0.0], [-86.77247153178907, 21.14321249554127, 0.0], [-86.77235026640903, 21.14320147361825, 0.0], [-86.7721449465904, 21.14292415184966, 0.0], [-86.77197303255704, 21.14269194919743, 0.0], [-86.77183567701066, 21.14250642388452, 0.0], [-86.77169724775024, 21.14232053788193, 0.0], [-86.7715514932197, 21.14217783656437, 0.0], [-86.77140332333376, 21.14203417067027, 0.0], [-86.77120944161022, 21.14184436494349, 0.0], [-86.7710400867134, 21.14167925652152, 0.0], [-86.77058104137534, 21.14109602138581, 0.0], [-86.77024405161332, 21.14082012752765, 0.0], [-86.77003980403305, 21.14068928270456, 0.0], [-86.769727439617, 21.14037436374049, 0.0], [-86.76910332649679, 21.13972744141822, 0.0], [-86.76853744352272, 21.13953523874029, 0.0], [-86.76856585039494, 21.13949299544455, 0.0], [-86.76856585039494, 21.13949299544455, 0.0], [-86.7682082597346, 21.13944176694402, 0.0], [-86.76778364003054, 21.13936408006553, 0.0], [-86.7675438624778, 21.1391449065693, 0.0], [-86.7672627204232, 21.1389622206384, 0.0], [-86.76691614050128, 21.13876901661733, 0.0], [-86.76656616176355, 21.13866261003155, 0.0], [-86.76533508437115, 21.13800087668531, 0.0], [-86.76503850953682, 21.13785038888118, 0.0], [-86.76482968663252, 21.13769755891661, 0.0], [-86.76462508339235, 21.13757849002974, 0.0], [-86.76441775449024, 21.13746561401337, 0.0], [-86.76417953167902, 21.13740888636123, 0.0], [-86.76394321236678, 21.13731610348681, 0.0], [-86.76374080398102, 21.13722070316245, 0.0], [-86.76352009166943, 21.13712386120044, 0.0], [-86.76325139523473, 21.13712308929814, 0.0], [-86.7629880133451, 21.13710786581858, 0.0], [-86.76275468972311, 21.13697138700577, 0.0], [-86.76254626699436, 21.13685385351247, 0.0], [-86.76233761799533, 21.13678571424229, 0.0], [-86.76211192362142, 21.13674472190088, 0.0], [-86.76179567632666, 21.13674846447098, 0.0], [-86.76075199060865, 21.13673086923443, 0.0], [-86.76049048341262, 21.13666110138941, 0.0], [-86.76024098494261, 21.13656322783243, 0.0], [-86.76001474349734, 21.13650850182247, 0.0], [-86.75978404557985, 21.1364891566016, 0.0], [-86.75954038248165, 21.13650017271922, 0.0], [-86.75930065397682, 21.13660493335562, 0.0], [-86.75905370284777, 21.13653118080528, 0.0], [-86.75881317289792, 21.13648939241001, 0.0], [-86.75836374134539, 21.13644360638584, 0.0], [-86.7580566187194, 21.13635984887991, 0.0], [-86.75778524174474, 21.13636714686585, 0.0], [-86.75755267375996, 21.13634815305856, 0.0], [-86.7572922237842, 21.13634292759786, 0.0], [-86.75707792872102, 21.13635370889991, 0.0], [-86.75682564912901, 21.13635094838357, 0.0], [-86.75659420192324, 21.13635011649237, 0.0], [-86.75636970872277, 21.13632308966972, 0.0], [-86.75611442665787, 21.13630170885388, 0.0], [-86.75579282327669, 21.13632065662763, 0.0], [-86.75543340240274, 21.1366025127292, 0.0], [-86.75496197404865, 21.13669058124653, 0.0], [-86.75479187496109, 21.13679913363448, 0.0], [-86.75443721701755, 21.1368630954389, 0.0], [-86.75410315815925, 21.13691171481718, 0.0], [-86.75386869047917, 21.13708921513826, 0.0], [-86.75363740714957, 21.13714261412241, 0.0], [-86.75340275139689, 21.13725702305918, 0.0], [-86.75335427680143, 21.13741114915099, 0.0], [-86.75294213120364, 21.13760133305557, 0.0], [-86.7527231820977, 21.13782575340208, 0.0], [-86.75249268313422, 21.13823297338981, 0.0], [-86.75241612762305, 21.13865428695293, 0.0], [-86.75216114234519, 21.13889030295687, 0.0], [-86.75209253654073, 21.13904216798961, 0.0], [-86.75183792948708, 21.13942963517495, 0.0], [-86.75156584139796, 21.13977040405623, 0.0], [-86.75126407194588, 21.13987785215808, 0.0], [-86.75102258908314, 21.13981120192863, 0.0], [-86.75063952494341, 21.13958076170364, 0.0], [-86.75044073933311, 21.13954550280644, 0.0], [-86.75021990982269, 21.13956159968136, 0.0], [-86.74999743150538, 21.13971948977248, 0.0], [-86.74982174370588, 21.13983883632963, 0.0], [-86.74966690765032, 21.13991193220155, 0.0], [-86.74942700385364, 21.13989183870352, 0.0], [-86.7492480891211, 21.13983815738122, 0.0], [-86.74892222391755, 21.13980278658628, 0.0], [-86.74855314743148, 21.13944791911052, 0.0], [-86.74833638989939, 21.13923295826767, 0.0], [-86.74801710323399, 21.13881609884881, 0.0], [-86.74769418792062, 21.1384510853069, 0.0], [-86.74723485473984, 21.1379336073847, 0.0], [-86.74666917557576, 21.1373983090793, 0.0], [-86.74634673599881, 21.13715661734604, 0.0], [-86.746154491034, 21.13706122056256, 0.0], [-86.74603441647767, 21.13701188088146, 0.0], [-86.74556316759185, 21.13688191364661, 0.0], [-86.7452690541253, 21.13677118831171, 0.0], [-86.7448415341839, 21.13667966891816, 0.0], [-86.74393573288006, 21.1365244989387, 0.0], [-86.74357783904462, 21.13639085862532, 0.0], [-86.743343786693, 21.1363955750706, 0.0], [-86.74315616766202, 21.13649437186307, 0.0], [-86.74292810620605, 21.13655685839713, 0.0], [-86.74277170033928, 21.13662400497079, 0.0], [-86.74243569746075, 21.13680022454572, 0.0], [-86.74217318379792, 21.13685270199519, 0.0], [-86.74195529983606, 21.13690599240659, 0.0], [-86.74176435874242, 21.13694277490708, 0.0], [-86.74150602864734, 21.13705371015719, 0.0], [-86.74127511328241, 21.1372143597383, 0.0], [-86.74106905756501, 21.13746531433769, 0.0], [-86.74097837165702, 21.13759493336276, 0.0], [-86.74080276615585, 21.13812307184215, 0.0], [-86.74072153253118, 21.13791725877148, 0.0], [-86.74081891811423, 21.13747832923828, 0.0], [-86.74089536259433, 21.1371592994979, 0.0], [-86.74081336465672, 21.13674800128673, 0.0], [-86.7408050464634, 21.13637708876767, 0.0], [-86.7408169611547, 21.13631235911903, 0.0], [-86.74079940512327, 21.13553304722593, 0.0], [-86.74106518429817, 21.13519770701497, 0.0], [-86.7411431547961, 21.13489125121044, 0.0], [-86.74143670676801, 21.1351250047556, 0.0], [-86.74172959283545, 21.13507929771992, 0.0], [-86.74199562402364, 21.13498600955433, 0.0], [-86.74227569462603, 21.13477280940236, 0.0], [-86.74258675066278, 21.13450643672784, 0.0], [-86.74281363089285, 21.13442611051731, 0.0], [-86.74318894451578, 21.13441256810069, 0.0], [-86.74380514691866, 21.13444073177488, 0.0], [-86.74407086503601, 21.13437841928071, 0.0], [-86.7444309054859, 21.13423305741081, 0.0], [-86.74469049855581, 21.13412677585582, 0.0], [-86.7448189918019, 21.13405985947446, 0.0], [-86.74504648114137, 21.13393530344085, 0.0], [-86.74526744353935, 21.13380550772904, 0.0], [-86.74577698031868, 21.13324741183054, 0.0], [-86.7459920778979, 21.1331591014066, 0.0], [-86.74609731346476, 21.13304860645498, 0.0], [-86.74623705566039, 21.13292754863901, 0.0], [-86.74643936812015, 21.13270944421956, 0.0], [-86.74675958974734, 21.13250628070923, 0.0], [-86.7469231197139, 21.13214786003592, 0.0], [-86.74703419939156, 21.13194969627233, 0.0], [-86.74700685785939, 21.13178543481685, 0.0], [-86.74714956468598, 21.13184231090061, 0.0], [-86.74735637492876, 21.13185491185833, 0.0], [-86.74752097643551, 21.1317610720616, 0.0], [-86.74754015854367, 21.1315812623751, 0.0], [-86.74744268928103, 21.13147046257992, 0.0], [-86.74785933052829, 21.13118609411462, 0.0], [-86.74791138990308, 21.1309199271362, 0.0], [-86.74809761118327, 21.13068537159705, 0.0], [-86.74820550416486, 21.13051419330336, 0.0], [-86.74846912399876, 21.13020722384362, 0.0], [-86.74873055882024, 21.12985097452798, 0.0], [-86.74889354367608, 21.12959679467033, 0.0], [-86.74914714671526, 21.12921990136529, 0.0], [-86.74941270370188, 21.12896696611107, 0.0], [-86.74970150081207, 21.12865658411089, 0.0], [-86.75008316216716, 21.12822695661519, 0.0], [-86.75036712404888, 21.1278971931897, 0.0], [-86.75061633028879, 21.12750873642962, 0.0], [-86.75093198103502, 21.12701777494591, 0.0], [-86.75119337872599, 21.12653112934677, 0.0], [-86.75145656857131, 21.12607966485966, 0.0], [-86.75156325361569, 21.12594444393984, 0.0], [-86.75176229090022, 21.12559375242473, 0.0], [-86.75216551204248, 21.12479437016043, 0.0], [-86.7523628103711, 21.12448184600863, 0.0], [-86.75272604691759, 21.12372202033601, 0.0], [-86.75343523156897, 21.12241974476079, 0.0], [-86.7537275684603, 21.12226235948486, 0.0], [-86.7539254451621, 21.12200353893076, 0.0], [-86.75415961163176, 21.12150793161317, 0.0], [-86.75433201596488, 21.1213668591509, 0.0], [-86.75444863965886, 21.12130197442742, 0.0], [-86.75444624601114, 21.12115326992271, 0.0], [-86.75440106949499, 21.12105405954716, 0.0], [-86.75442269782258, 21.12098628559015, 0.0], [-86.7544105491891, 21.12085984807641, 0.0], [-86.75459523920702, 21.12082084509069, 0.0], [-86.75481696006217, 21.12045571150329, 0.0], [-86.75497143250392, 21.12035131186603, 0.0], [-86.75517179093649, 21.11986891474358, 0.0], [-86.75530847630363, 21.11976369929611, 0.0], [-86.75550518493189, 21.11913031330461, 0.0], [-86.75575909806764, 21.11902342109269, 0.0], [-86.75581526400904, 21.11873751376744, 0.0], [-86.75611931703065, 21.11821896177593, 0.0], [-86.75630595414017, 21.11782208011407, 0.0], [-86.75722315222288, 21.11622559455444, 0.0], [-86.75790533901771, 21.11474156707238, 0.0], [-86.75895548687777, 21.11288270454624, 0.0], [-86.75906195566316, 21.11244871430161, 0.0], [-86.75920983821955, 21.1122881260526, 0.0], [-86.75951620623003, 21.11200740378013, 0.0], [-86.7601636090766, 21.11027587687587, 0.0], [-86.76040064231606, 21.10984254456436, 0.0], [-86.76046083422555, 21.1094867850384, 0.0], [-86.76086113128423, 21.10905843429756, 0.0], [-86.76114871196509, 21.10817229984195, 0.0], [-86.76140297801744, 21.10751432585825, 0.0], [-86.76199882990613, 21.10618570289013, 0.0], [-86.76219241386775, 21.10583848496703, 0.0], [-86.76261321034325, 21.10492730025343, 0.0], [-86.7629905991106, 21.10403965712575, 0.0], [-86.76344331920896, 21.10301876359772, 0.0], [-86.76387272207049, 21.10201294422057, 0.0], [-86.76430085192419, 21.10100421654782, 0.0], [-86.76472989728444, 21.0999672841446, 0.0], [-86.76512965313681, 21.09894999217174, 0.0], [-86.7660637976962, 21.09662786383915, 0.0], [-86.76622613693084, 21.0962615750676, 0.0], [-86.76742038806562, 21.09334524602978, 0.0], [-86.76897508792106, 21.08951506263513, 0.0], [-86.77003914684947, 21.08666195536109, 0.0], [-86.77120751558034, 21.08359094028354, 0.0], [-86.77218427540694, 21.08080943893525, 0.0], [-86.77301433858686, 21.07855678544079, 0.0], [-86.7734259666279, 21.07740436452573, 0.0], [-86.77401193216366, 21.07569740914045, 0.0], [-86.77485182035689, 21.07344950635714, 0.0], [-86.77574716623603, 21.07076901391333, 0.0], [-86.77648457097804, 21.06842420551449, 0.0], [-86.77752469420625, 21.0653782719916, 0.0], [-86.77843439645753, 21.06245952934255, 0.0], [-86.77908277303999, 21.06043782025505, 0.0], [-86.77972952693868, 21.05835789150162, 0.0], [-86.7804228606139, 21.05586832848572, 0.0], [-86.78090009606095, 21.05400127226757, 0.0], [-86.78140630032861, 21.05170201505711, 0.0], [-86.78182553295095, 21.04930321710991, 0.0], [-86.78204439277773, 21.04749043009972, 0.0], [-86.78218541091836, 21.04634148208623, 0.0], [-86.78222978465371, 21.04441428966531, 0.0], [-86.78202808511679, 21.04267119719742, 0.0], [-86.78187063200272, 21.04102431186508, 0.0], [-86.78144505742466, 21.03961136759353, 0.0], [-86.7811663882047, 21.03882690970424, 0.0], [-86.78064791915097, 21.03786674440314, 0.0], [-86.78018839030268, 21.0372111648843, 0.0], [-86.7791046722901, 21.0364324343847, 0.0], [-86.7782330768435, 21.03614821242461, 0.0], [-86.77756739826538, 21.03707049651667, 0.0], [-86.77777016210531, 21.0363259736448, 0.0], [-86.77813188065389, 21.03517360257723, 0.0], [-86.77823949560353, 21.03474690598713, 0.0], [-86.7786055133414, 21.03408825525897, 0.0], [-86.77889981875231, 21.03318027162369, 0.0], [-86.77938508245398, 21.0324557641133, 0.0], [-86.77992641787223, 21.03223684130059, 0.0], [-86.78111031131779, 21.03249140800115, 0.0], [-86.78248538800197, 21.03238224793084, 0.0], [-86.78390349398353, 21.03199331063643, 0.0], [-86.78612400156557, 21.03097194324013, 0.0], [-86.78713904793653, 21.03035822596813, 0.0], [-86.78703959769912, 21.03058263308418, 0.0], [-86.78697442923756, 21.03071739684345, 0.0], [-86.78777855084431, 21.03163418910096, 0.0], [-86.78859662563222, 21.03266702654449, 0.0], [-86.78908736087627, 21.03323499133433, 0.0], [-86.78952224547778, 21.03386416580626, 0.0], [-86.79006945908671, 21.03469923640677, 0.0], [-86.79092940011137, 21.03539825408774, 0.0], [-86.79173926435334, 21.03595551831858, 0.0], [-86.79190405893115, 21.03607255041472, 0.0], [-86.79287678004337, 21.03630961972194, 0.0], [-86.79364369525345, 21.03623566594124, 0.0], [-86.79422648596739, 21.03634967178597, 0.0], [-86.79468269500873, 21.03650937274027, 0.0], [-86.7947438869801, 21.03692601879772, 0.0], [-86.79515257543792, 21.03754850993168, 0.0], [-86.79586361399109, 21.03751452518978, 0.0], [-86.79577229088014, 21.03738095629812, 0.0], [-86.79562100901002, 21.03717422145663, 0.0], [-86.79549295871641, 21.03702671964878, 0.0], [-86.79543396163133, 21.03690318249875, 0.0], [-86.79540069356365, 21.03679986594068, 0.0], [-86.79526195479039, 21.03668289638608, 0.0], [-86.79517055347843, 21.0364854133727, 0.0], [-86.79559507409928, 21.03643431064493, 0.0], [-86.79615033040032, 21.03640433831451, 0.0], [-86.79718253554566, 21.03635828003896, 0.0], [-86.79795489003946, 21.03632397901394, 0.0], [-86.79873796241058, 21.03629207255566, 0.0], [-86.7995175582798, 21.03625434851793, 0.0], [-86.80033245602874, 21.03620180788916, 0.0], [-86.8009995787328, 21.03607242363857, 0.0], [-86.80162492710163, 21.03588907591444, 0.0], [-86.80319144520541, 21.03502759648749, 0.0], [-86.80446113548125, 21.03432928577679, 0.0], [-86.8046544259876, 21.03415807598913, 0.0], [-86.80517254495217, 21.0337400704111, 0.0], [-86.80559982971525, 21.03349965299288, 0.0], [-86.80623849420978, 21.0330373178129, 0.0], [-86.80674386565981, 21.03263939696611, 0.0], [-86.80702862569694, 21.032329483871, 0.0], [-86.80743265799704, 21.03192702748414, 0.0], [-86.80772369541543, 21.03165046156882, 0.0], [-86.80807870370822, 21.0313576129559, 0.0], [-86.80850083902122, 21.03104095815763, 0.0], [-86.80882410490301, 21.03078569634778, 0.0], [-86.80920112898968, 21.0304168176159, 0.0], [-86.80944296107174, 21.03007364641209, 0.0], [-86.80976377946078, 21.02965103204555, 0.0], [-86.80997461074679, 21.02920913874728, 0.0], [-86.8101570419643, 21.02880449426328, 0.0], [-86.81043723584433, 21.02827366823171, 0.0], [-86.81072417397404, 21.02774282209174, 0.0], [-86.8110080966962, 21.02717471836176, 0.0], [-86.81129664385952, 21.02666966050478, 0.0], [-86.81151713132753, 21.02621019254942, 0.0], [-86.81177402841604, 21.02573143745573, 0.0], [-86.8120204577413, 21.02521086271378, 0.0], [-86.81226006581443, 21.02476431763602, 0.0], [-86.81255795613386, 21.02425313258817, 0.0], [-86.8128730486105, 21.02375940458389, 0.0], [-86.81317764092539, 21.02329570775224, 0.0], [-86.81342621356603, 21.0228552065084, 0.0], [-86.81367964375244, 21.02232239357498, 0.0], [-86.81393347704302, 21.02182001253082, 0.0], [-86.8142178335323, 21.02124787349943, 0.0], [-86.81445147999845, 21.02070140296672, 0.0], [-86.81467567238606, 21.02015683731403, 0.0], [-86.81492169262441, 21.0196089518994, 0.0], [-86.81515762232188, 21.01882978007094, 0.0], [-86.81539054727688, 21.01850397454238, 0.0], [-86.81560158385334, 21.01798608435768, 0.0], [-86.81583497927774, 21.0174868494715, 0.0], [-86.81616677376508, 21.01673208549006, 0.0], [-86.8164588859342, 21.01612174813244, 0.0], [-86.81669185669982, 21.01558729070825, 0.0], [-86.81681922334957, 21.01524258428712, 0.0], [-86.81697611819847, 21.01479061178562, 0.0], [-86.81717759934108, 21.0141690617172, 0.0], [-86.81742272298669, 21.01348823043645, 0.0], [-86.81757156600665, 21.0130787069178, 0.0], [-86.8177260287238, 21.01267641774454, 0.0], [-86.81796443784621, 21.01195007505059, 0.0], [-86.81814214766206, 21.01134851201424, 0.0], [-86.81830703294696, 21.01088679715154, 0.0], [-86.81852031876325, 21.01045702036274, 0.0], [-86.81872816304677, 21.0100222136856, 0.0], [-86.81900169796114, 21.0095485963925, 0.0], [-86.81929791041604, 21.00893995654234, 0.0], [-86.81963227930736, 21.00825446354861, 0.0], [-86.81999380914196, 21.00733637683904, 0.0], [-86.82044295076528, 21.00624538591507, 0.0], [-86.82083303278081, 21.00515537960338, 0.0], [-86.82125316565963, 21.00422154818119, 0.0], [-86.82159387754939, 21.00315357098963, 0.0], [-86.82188757071468, 21.00215079896877, 0.0], [-86.82212211477791, 21.00143110453157, 0.0], [-86.82245083089154, 21.00028495458845, 0.0], [-86.82265742867483, 20.9994174254568, 0.0], [-86.82284240662801, 20.99869424457898, 0.0], [-86.82300586654188, 20.99798897676407, 0.0], [-86.82308250655636, 20.99778285456128, 0.0], [-86.84624475327927, 21.00629542837437, 0.0], [-86.84461080960769, 21.01317463627133, 0.0], [-86.84219293935026, 21.01493946414821, 0.0], [-86.8355319412437, 21.08488211203193, 0.0], [-86.83510323071357, 21.08938219378789, 0.0], [-86.83470526789179, 21.09226112520271, 0.0], [-86.83455242081365, 21.09387065783373, 0.0], [-86.83431866995078, 21.09634018885496, 0.0], [-86.83409545755384, 21.0986600153969, 0.0], [-86.83238013791744, 21.1002040307514, 0.0], [-86.8379778510956, 21.13987357873479, 0.0], [-86.8379778510956, 21.13987357873479, 0.0], [-86.83523592719207, 21.16751299910498, 0.0], [-86.8264871375283, 21.1714062979371, 0.0], [-86.81955143215497, 21.17463788226056, 0.0], [-86.81701402932838, 21.17615114087925, 0.0], [-86.80850913957514, 21.17713848313549, 0.0], [-86.80650851857635, 21.17771565984267, 0.0]]]]}}]}