{"type": "FeatureCollection", "name": "Cozumel", "crs": {"type": "name", "properties": {"name": "urn:ogc:def:crs:OGC:1.3:CRS84"}}, "features": [{"type": "Feature", "properties": {"Name": "0"}, "geometry": {"type": "MultiPolygon", "coordinates": [[[[-86.97607542552282, 20.47459591971938, 0.0], [-86.97635826900753, 20.47435690725757, 0.0], [-86.97775155675326, 20.47315586609243, 0.0], [-86.97776540664496, 20.47314393063691, 0.0], [-86.97882736511421, 20.47171865697523, 0.0], [-86.9797084132029, 20.47043548549434, 0.0], [-86.9798660773121, 20.47020585937401, 0.0], [-86.97990278924625, 20.47015239095621, 0.0], [-86.98001837624065, 20.46998404209809, 0.0], [-86.98011649673836, 20.46984181254516, 0.0], [-86.9802599326977, 20.46963388752992, 0.0], [-86.98043850757007, 20.46937503124982, 0.0], [-86.98075209049695, 20.46892046580772, 0.0], [-86.98065635260008, 20.46885158113838, 0.0], [-86.98033532955168, 20.46862058689491, 0.0], [-86.98015099551043, 20.46848795035861, 0.0], [-86.9801128928454, 20.46846053404661, 0.0], [-86.97926067424594, 20.46784731871628, 0.0], [-86.97906867396118, 20.46770915932916, 0.0], [-86.97903305631849, 20.46768353388338, 0.0], [-86.9789803464195, 20.46764560622513, 0.0], [-86.97887905917526, 20.46757272022841, 0.0], [-86.97884867413192, 20.46748292584554, 0.0], [-86.97867062565946, 20.46695675073564, 0.0], [-86.97865959806802, 20.46692416520603, 0.0], [-86.97865806072203, 20.46691962485246, 0.0], [-86.97851178164942, 20.46648732378419, 0.0], [-86.9787780824135, 20.46608871156427, 0.0], [-86.97882290696106, 20.4654954880441, 0.0], [-86.9783849484642, 20.46546632844843, 0.0], [-86.97821730452773, 20.46472341903403, 0.0], [-86.97783515166113, 20.46513519279942, 0.0], [-86.97773950591656, 20.46523994413406, 0.0], [-86.97770500587187, 20.46527772754857, 0.0], [-86.97664751450723, 20.46643584990313, 0.0], [-86.97658496884388, 20.46650433775742, 0.0], [-86.97646005645619, 20.46664113803558, 0.0], [-86.97631595811238, 20.46679893773262, 0.0], [-86.97615644493955, 20.46697363451237, 0.0], [-86.97599798792051, 20.46714716922181, 0.0], [-86.97580694944463, 20.46735639458693, 0.0], [-86.97569907444627, 20.46747552025571, 0.0], [-86.97542273509652, 20.4677806717956, 0.0], [-86.97534532849292, 20.46786199772586, 0.0], [-86.97525974024852, 20.46795823517562, 0.0], [-86.97517681787645, 20.46805652133128, 0.0], [-86.97509660411069, 20.46815679167413, 0.0], [-86.97499488375348, 20.46829219938191, 0.0], [-86.97489811375901, 20.46843079004913, 0.0], [-86.97480640418391, 20.46857240651486, 0.0], [-86.9747493624262, 20.46866764350991, 0.0], [-86.97471986801375, 20.46871688279401, 0.0], [-86.97463860653056, 20.46886405455414, 0.0], [-86.97456270638807, 20.46901374973901, 0.0], [-86.97445701779448, 20.46924760782266, 0.0], [-86.97438709041352, 20.46942422434552, 0.0], [-86.97433190010906, 20.46958077407894, 0.0], [-86.97428236630925, 20.46973899961369, 0.0], [-86.97423856221641, 20.46989870958583, 0.0], [-86.9742005247456, 20.47005973303198, 0.0], [-86.97416830486152, 20.47022187913542, 0.0], [-86.9741419342164, 20.47038495873058, 0.0], [-86.97412144855812, 20.47054879147638, 0.0], [-86.97411607815594, 20.47059911853663, 0.0], [-86.97407649588428, 20.47096956995404, 0.0], [-86.97402011978552, 20.47149712213509, 0.0], [-86.97392392460304, 20.47239761403657, 0.0], [-86.9739239245982, 20.47239764271592, 0.0], [-86.97386605405909, 20.47295534701047, 0.0], [-86.97386116980343, 20.47300237930585, 0.0], [-86.97384609668875, 20.47314764290485, 0.0], [-86.9738207256302, 20.47339214266363, 0.0], [-86.97378908848374, 20.47369704623857, 0.0], [-86.9759561555349, 20.47454903073416, 0.0], [-86.97607542552282, 20.47459591971938, 0.0]]]]}}]}