{"type": "FeatureCollection", "name": "Ixtapa", "crs": {"type": "name", "properties": {"name": "urn:ogc:def:crs:OGC:1.3:CRS84"}}, "features": [{"type": "Feature", "properties": {"Name": "L\u00cdMITE DE CIP IXTAPA"}, "geometry": {"type": "MultiPolygon", "coordinates": [[[[-101.6036894776612, 17.65934603193384, 0.0], [-101.6034197395687, 17.65911554286294, 0.0], [-101.6030413642603, 17.65877883370986, 0.0], [-101.6029166190068, 17.65866842812936, 0.0], [-101.6027404915285, 17.6585030009904, 0.0], [-101.6026216688475, 17.6583913777165, 0.0], [-101.6025386250725, 17.65830496424005, 0.0], [-101.6024063197859, 17.65816202251, 0.0], [-101.6023273082127, 17.65806987295099, 0.0], [-101.6020916927578, 17.65779175114113, 0.0], [-101.6020158496829, 17.65769699215361, 0.0], [-101.6018052869021, 17.6574909785779, 0.0], [-101.6017580951595, 17.65745243204982, 0.0], [-101.6016384312029, 17.6573359900336, 0.0], [-101.6015613816263, 17.65725898243069, 0.0], [-101.6014214946303, 17.65707588860053, 0.0], [-101.6013844164401, 17.65701967572868, 0.0], [-101.6013330127775, 17.65693615951633, 0.0], [-101.6012450291594, 17.65678485601176, 0.0], [-101.6011472655288, 17.65664698539579, 0.0], [-101.600928171337, 17.65631546272713, 0.0], [-101.6008947598503, 17.65626221039794, 0.0], [-101.6006594377078, 17.6558543309082, 0.0], [-101.6004005245842, 17.65548510037264, 0.0], [-101.6003442331805, 17.65534693371906, 0.0], [-101.6002255588447, 17.65517585603788, 0.0], [-101.6002073013271, 17.65512946208597, 0.0], [-101.6001023196925, 17.65499444450348, 0.0], [-101.6000505902485, 17.65486492808261, 0.0], [-101.5999727625065, 17.65465900109447, 0.0], [-101.5999463911624, 17.65450532122013, 0.0], [-101.5999342198206, 17.65443476372354, 0.0], [-101.599876170273, 17.6538968953176, 0.0], [-101.5998477705597, 17.65368678409756, 0.0], [-101.5997392426158, 17.65319878983372, 0.0], [-101.5996337580027, 17.65273251202937, 0.0], [-101.5996641871659, 17.65270931522171, 0.0], [-101.5995871035003, 17.6522247037409, 0.0], [-101.5997118623725, 17.65218217460671, 0.0], [-101.59993906602, 17.65201979672697, 0.0], [-101.6001397442917, 17.65188245630262, 0.0], [-101.6002219024689, 17.65182929687877, 0.0], [-101.6003598473445, 17.6516949480232, 0.0], [-101.6004967782226, 17.65155383287026, 0.0], [-101.6005800439286, 17.65146325041372, 0.0], [-101.6006348162651, 17.65137046240907, 0.0], [-101.6006385016293, 17.65133087879579, 0.0], [-101.6006871879355, 17.65110374194042, 0.0], [-101.6007419604205, 17.65085437415186, 0.0], [-101.6008045098661, 17.65059361856501, 0.0], [-101.6006393810363, 17.65036966658126, 0.0], [-101.6005326347852, 17.65027511095732, 0.0], [-101.6003087531922, 17.65007716081797, 0.0], [-101.5999811403086, 17.64977366654392, 0.0], [-101.5998549133186, 17.64964261795424, 0.0], [-101.5997261001246, 17.64951600066354, 0.0], [-101.5995496161065, 17.64935362113517, 0.0], [-101.5992554747126, 17.649235701116, 0.0], [-101.5990247121746, 17.64920717273526, 0.0], [-101.59875897074, 17.6491926721494, 0.0], [-101.5984191865794, 17.64920716648183, 0.0], [-101.5980799460328, 17.64909489626547, 0.0], [-101.5979726978396, 17.64898409191775, 0.0], [-101.5977972302535, 17.64881494497631, 0.0], [-101.5975346278732, 17.6485061701073, 0.0], [-101.5973556029803, 17.64820217190524, 0.0], [-101.5972371827514, 17.6478808249859, 0.0], [-101.5970991105162, 17.64747620135978, 0.0], [-101.5970615892827, 17.64714520785349, 0.0], [-101.5970942827177, 17.64683962257582, 0.0], [-101.5971898785383, 17.6464602873634, 0.0], [-101.5970620903348, 17.64605993461318, 0.0], [-101.5971114489125, 17.64563501208806, 0.0], [-101.5972413940698, 17.64523107053775, 0.0], [-101.5973823817902, 17.64495464217994, 0.0], [-101.5975444979325, 17.64467647038356, 0.0], [-101.5975657979827, 17.64464167526888, 0.0], [-101.5977348640728, 17.64442294613936, 0.0], [-101.5980461469891, 17.64402666505628, 0.0], [-101.5980938185837, 17.64392711195769, 0.0], [-101.5981903930635, 17.64372389401168, 0.0], [-101.5983594253148, 17.6435777408268, 0.0], [-101.5985004094604, 17.6433681149262, 0.0], [-101.5985692148171, 17.64327209795077, 0.0], [-101.5986361597009, 17.6429222110914, 0.0], [-101.5987375254663, 17.64267859111511, 0.0], [-101.598318648261, 17.64226780720311, 0.0], [-101.5981942044508, 17.64214459597207, 0.0], [-101.598004966365, 17.64174730778702, 0.0], [-101.5980472916652, 17.6416089377607, 0.0], [-101.5981341069237, 17.64132679204129, 0.0], [-101.5980941022103, 17.64111148787328, 0.0], [-101.59781082978, 17.64099929957215, 0.0], [-101.5976696312905, 17.64055416096813, 0.0], [-101.5976506723223, 17.64028195939434, 0.0], [-101.5976361290034, 17.64007647517824, 0.0], [-101.5976304954973, 17.64002658508848, 0.0], [-101.5976855529552, 17.63983727423627, 0.0], [-101.5977917924736, 17.63948340831135, 0.0], [-101.5979024587109, 17.63910408588177, 0.0], [-101.5979872102413, 17.63886248519452, 0.0], [-101.59806168353, 17.63865543931134, 0.0], [-101.5975826981106, 17.63840464762229, 0.0], [-101.5974192381093, 17.6381533069879, 0.0], [-101.5973430942531, 17.63817533766675, 0.0], [-101.5973148157632, 17.63807899809921, 0.0], [-101.5971331681627, 17.63781700078743, 0.0], [-101.5970617530783, 17.63775068811034, 0.0], [-101.5967735942259, 17.63776952985715, 0.0], [-101.5966023814155, 17.63762905133981, 0.0], [-101.5964182462971, 17.63752060122836, 0.0], [-101.5961939308962, 17.63738273985291, 0.0], [-101.5959931516058, 17.6371475368773, 0.0], [-101.595998646414, 17.63682731580269, 0.0], [-101.5961544963941, 17.6366134781804, 0.0], [-101.5961499189082, 17.63651924421984, 0.0], [-101.5958686407791, 17.63613955295203, 0.0], [-101.5956282009632, 17.63594934066587, 0.0], [-101.5952992310154, 17.63603080730539, 0.0], [-101.5952964263458, 17.63603754833414, 0.0], [-101.5950965611268, 17.63580739223601, 0.0], [-101.5949800654466, 17.63573930210008, 0.0], [-101.594861924821, 17.63568529607021, 0.0], [-101.5946351769805, 17.6356643059566, 0.0], [-101.5944152230702, 17.63580984619326, 0.0], [-101.5939856581411, 17.63590883185302, 0.0], [-101.5937046211674, 17.63616228902318, 0.0], [-101.5936844504618, 17.63619066481116, 0.0], [-101.5935403741162, 17.63638197228609, 0.0], [-101.5931758702346, 17.63642470626164, 0.0], [-101.5927032093597, 17.63662207146563, 0.0], [-101.5922963066588, 17.63681590886884, 0.0], [-101.592051530612, 17.63705881820221, 0.0], [-101.5917068540466, 17.63695355485885, 0.0], [-101.5911752355204, 17.63710890442565, 0.0], [-101.5907428507765, 17.63698894757644, 0.0], [-101.5906263273934, 17.63696782466394, 0.0], [-101.5904881834707, 17.6370637641762, 0.0], [-101.5905338642991, 17.6371789176124, 0.0], [-101.5905532698163, 17.63728769614421, 0.0], [-101.5905378228538, 17.63746804213543, 0.0], [-101.5903293457689, 17.63765511120509, 0.0], [-101.5900929479677, 17.63762037797551, 0.0], [-101.589895129119, 17.63769212876915, 0.0], [-101.5896936895244, 17.63785708374855, 0.0], [-101.589449322665, 17.63804367442805, 0.0], [-101.5893744130066, 17.63826724039154, 0.0], [-101.5893157637755, 17.6384440666048, 0.0], [-101.5889240023254, 17.63847886512781, 0.0], [-101.5887334052756, 17.63880051826712, 0.0], [-101.5884765945003, 17.63882222790384, 0.0], [-101.5883916817091, 17.63874064862347, 0.0], [-101.5880844410709, 17.63875841019538, 0.0], [-101.587818654044, 17.63894459291823, 0.0], [-101.5875728764677, 17.63909317484095, 0.0], [-101.587123367961, 17.63924548536252, 0.0], [-101.5865694494566, 17.63926192599185, 0.0], [-101.5862757088459, 17.63918269535424, 0.0], [-101.5860126817281, 17.63933400710627, 0.0], [-101.5856748451019, 17.63960722742303, 0.0], [-101.5853911067329, 17.63973222214141, 0.0], [-101.585041567009, 17.63973024128227, 0.0], [-101.5846440313792, 17.6395951989766, 0.0], [-101.5844679998916, 17.63926032630454, 0.0], [-101.5841580823369, 17.63903860324793, 0.0], [-101.5839696138747, 17.63911951936153, 0.0], [-101.58370037359, 17.63920503836291, 0.0], [-101.5833595522363, 17.63915533624025, 0.0], [-101.5831621180498, 17.63896125130526, 0.0], [-101.5830150195898, 17.63868214806732, 0.0], [-101.5828486160952, 17.63842495999641, 0.0], [-101.5827571802183, 17.63814035228451, 0.0], [-101.5827032564733, 17.63790943503415, 0.0], [-101.5826191850118, 17.6376526369733, 0.0], [-101.5823691635835, 17.63746845043374, 0.0], [-101.5823139365987, 17.6374506853575, 0.0], [-101.5820516032757, 17.63749607071998, 0.0], [-101.5816224566442, 17.63763292730493, 0.0], [-101.5815155675929, 17.63767713697219, 0.0], [-101.5812483961549, 17.63783173185351, 0.0], [-101.5808040628907, 17.63781008107843, 0.0], [-101.5804047558264, 17.63772856336732, 0.0], [-101.5801254823235, 17.63745277884502, 0.0], [-101.5799731454829, 17.63720391465062, 0.0], [-101.5798730533611, 17.637051936272, 0.0], [-101.5796928731664, 17.63705784871369, 0.0], [-101.5796172150876, 17.63709498629072, 0.0], [-101.5793966052454, 17.63717160345369, 0.0], [-101.5792646526308, 17.63720499875511, 0.0], [-101.5791120772935, 17.63733663350618, 0.0], [-101.5790275449828, 17.63736217172433, 0.0], [-101.5789491987586, 17.63737199172677, 0.0], [-101.5789100260578, 17.63737002487094, 0.0], [-101.5788131236265, 17.63739163272264, 0.0], [-101.5787409637468, 17.63738180484987, 0.0], [-101.578712100719, 17.63736215520111, 0.0], [-101.5785203571498, 17.63741126522729, 0.0], [-101.578341514272, 17.63742107965199, 0.0], [-101.5780384391475, 17.63742499227757, 0.0], [-101.5779621556109, 17.63741712868407, 0.0], [-101.5778425753271, 17.63741712182205, 0.0], [-101.5776363946865, 17.63753892819252, 0.0], [-101.5775250637435, 17.63750159021184, 0.0], [-101.5774632123888, 17.63749372730357, 0.0], [-101.5773951744196, 17.63750747694656, 0.0], [-101.5773518795364, 17.63748586142592, 0.0], [-101.5773292003789, 17.63748782487766, 0.0], [-101.5772941517633, 17.63747603389585, 0.0], [-101.5772240539745, 17.63746031117693, 0.0], [-101.5771539575157, 17.63742494029157, 0.0], [-101.5770673669991, 17.6373915331797, 0.0], [-101.5770240718172, 17.63737384719957, 0.0], [-101.5769745927422, 17.63733651267893, 0.0], [-101.5768344039251, 17.63720289650575, 0.0], [-101.5768117281542, 17.63715377466005, 0.0], [-101.5767622448884, 17.63717734931235, 0.0], [-101.5767621893097, 17.63793576767324, 0.0], [-101.5767682331864, 17.63997428451241, 0.0], [-101.5767803851645, 17.64313314694687, 0.0], [-101.5767782610764, 17.64404482266259, 0.0], [-101.576790479064, 17.64623869930378, 0.0], [-101.5767904008016, 17.64737746048872, 0.0], [-101.5767924419836, 17.64767039737466, 0.0], [-101.576738834043, 17.6476702615415, 0.0], [-101.576744932318, 17.64893363839972, 0.0], [-101.5767572508375, 17.64968286367253, 0.0], [-101.5766912658208, 17.6497575223877, 0.0], [-101.5767118078106, 17.65086256611658, 0.0], [-101.576724130315, 17.65156212280366, 0.0], [-101.5767983586364, 17.65156016274274, 0.0], [-101.5767384331361, 17.65343799753322, 0.0], [-101.5767136841092, 17.65352641264085, 0.0], [-101.5767136775143, 17.65362268871074, 0.0], [-101.5767961511682, 17.65366788483956, 0.0], [-101.5767961163726, 17.65416494631752, 0.0], [-101.5767981220608, 17.65497816968811, 0.0], [-101.5768001433194, 17.65557940437277, 0.0], [-101.5768020939978, 17.6571840594294, 0.0], [-101.5768041199458, 17.65769825753812, 0.0], [-101.576802041879, 17.65793600038129, 0.0], [-101.5888777491877, 17.66320999079001, 0.0], [-101.5913482119844, 17.66428070154406, 0.0], [-101.592173148333, 17.66471730522353, 0.0], [-101.5937636528507, 17.66539770742123, 0.0], [-101.5967292373274, 17.66664509071585, 0.0], [-101.5976988917934, 17.66707050729338, 0.0], [-101.5982575973738, 17.6673140986258, 0.0], [-101.5985375568603, 17.6674398371376, 0.0], [-101.5993705333277, 17.6678034055568, 0.0], [-101.6000629847631, 17.66810797931159, 0.0], [-101.600251996871, 17.66818784674603, 0.0], [-101.6009309175283, 17.66848556705342, 0.0], [-101.6009612395019, 17.66851615424664, 0.0], [-101.601064686675, 17.66858753418765, 0.0], [-101.6012216475904, 17.66865892744787, 0.0], [-101.6013322640826, 17.6687150351239, 0.0], [-101.6014282104799, 17.66874165631338, 0.0], [-101.6015048789854, 17.66877904270727, 0.0], [-101.6015993860599, 17.66881813237117, 0.0], [-101.6019522177968, 17.66896061543326, 0.0], [-101.6027422426107, 17.66927680580524, 0.0], [-101.6033295256768, 17.66952846015699, 0.0], [-101.6034279590829, 17.66957194456605, 0.0], [-101.6035123368788, 17.66960936868898, 0.0], [-101.5993794777886, 17.67516924445787, 0.0], [-101.5993590450897, 17.67519673132255, 0.0], [-101.5965514876181, 17.67439705989931, 0.0], [-101.5962224084208, 17.6742344848543, 0.0], [-101.5959267768518, 17.67401154946977, 0.0], [-101.5931025930111, 17.67147790769447, 0.0], [-101.592672771077, 17.67109229363072, 0.0], [-101.5923345484263, 17.67078885573236, 0.0], [-101.5918705233244, 17.67042069204955, 0.0], [-101.59137876246, 17.67013755001795, 0.0], [-101.5909379858573, 17.66999916924031, 0.0], [-101.5904092768502, 17.66994228739792, 0.0], [-101.5885872468511, 17.66981670966196, 0.0], [-101.5879546371963, 17.66981915282686, 0.0], [-101.586817573199, 17.67018196059796, 0.0], [-101.5869597560935, 17.67113700159211, 0.0], [-101.5871759247044, 17.67214072946706, 0.0], [-101.5878604469869, 17.67248240224253, 0.0], [-101.5875198855754, 17.67296089383907, 0.0], [-101.5873763232758, 17.67316468814106, 0.0], [-101.5879549949448, 17.67332620969253, 0.0], [-101.5886455413055, 17.6734849619714, 0.0], [-101.5889240284537, 17.67351190240051, 0.0], [-101.5893104453629, 17.67410108111678, 0.0], [-101.5901692706592, 17.67571855572105, 0.0], [-101.592948128362, 17.67789958822616, 0.0], [-101.5941886620032, 17.67828082473176, 0.0], [-101.5963666700603, 17.67895306249187, 0.0], [-101.598020509237, 17.67919478976424, 0.0], [-101.5985929979491, 17.67969353004086, 0.0], [-101.6016389037423, 17.68291349096366, 0.0], [-101.6026213260067, 17.68363288553137, 0.0], [-101.6031971769375, 17.68372373321471, 0.0], [-101.6039402463226, 17.683840326115, 0.0], [-101.6047311693835, 17.68396487526698, 0.0], [-101.6058486476013, 17.68414785693098, 0.0], [-101.6069417224506, 17.68432336677036, 0.0], [-101.6079410286693, 17.68448638677813, 0.0], [-101.6080866088953, 17.6844673100941, 0.0], [-101.6200630756518, 17.68096465416906, 0.0], [-101.6217919749738, 17.68044847939441, 0.0], [-101.6221260480887, 17.68979627070526, 0.0], [-101.6231890271784, 17.68965796350906, 0.0], [-101.6238395351795, 17.6897273189205, 0.0], [-101.6239606216831, 17.69033289702442, 0.0], [-101.6246790177916, 17.69041148129526, 0.0], [-101.6249086993013, 17.69055700013576, 0.0], [-101.625013186075, 17.69065410509851, 0.0], [-101.625222844105, 17.69078138134182, 0.0], [-101.6254074001056, 17.69094785716486, 0.0], [-101.6257609399303, 17.69127284434069, 0.0], [-101.6261056902907, 17.69159651494404, 0.0], [-101.6263825917902, 17.69207748761816, 0.0], [-101.6266353712976, 17.69275287474254, 0.0], [-101.6267765740812, 17.69350714608585, 0.0], [-101.6268726149147, 17.69426201827624, 0.0], [-101.6268870050225, 17.69517526055579, 0.0], [-101.6276592606498, 17.69567494953159, 0.0], [-101.6278402013485, 17.6954991035114, 0.0], [-101.6282479551687, 17.69510581997555, 0.0], [-101.628927384918, 17.69443970265565, 0.0], [-101.6293705532184, 17.69384131955378, 0.0], [-101.629686000124, 17.69348059640903, 0.0], [-101.6302052193185, 17.69301358196864, 0.0], [-101.6308509013048, 17.69323084847651, 0.0], [-101.6313557059424, 17.6931938308931, 0.0], [-101.6317532456428, 17.69394757705843, 0.0], [-101.6321026461256, 17.69342498601498, 0.0], [-101.6328792869357, 17.69333708430276, 0.0], [-101.6333212132722, 17.69369311952783, 0.0], [-101.6334574506178, 17.69422499736852, 0.0], [-101.633787525356, 17.69410471292295, 0.0], [-101.6347132744124, 17.69316217604897, 0.0], [-101.6354851415462, 17.69316674359191, 0.0], [-101.6359606027936, 17.69276441422551, 0.0], [-101.6366618226918, 17.69277788292395, 0.0], [-101.6374616064476, 17.69190741424467, 0.0], [-101.6377965016715, 17.69089459514216, 0.0], [-101.6383257265388, 17.69037279327819, 0.0], [-101.6386606093338, 17.69021844538946, 0.0], [-101.6390684068744, 17.68998430936904, 0.0], [-101.6399323703065, 17.68985476937821, 0.0], [-101.6400512405279, 17.68997176871673, 0.0], [-101.6401654178413, 17.6900489363973, 0.0], [-101.6406495156921, 17.69045278331485, 0.0], [-101.6414748674203, 17.69218231942252, 0.0], [-101.6422047621466, 17.69369306280592, 0.0], [-101.6430758682547, 17.69553927812737, 0.0], [-101.6454050599255, 17.70010188231853, 0.0], [-101.6467233736992, 17.69772468580834, 0.0], [-101.646743491434, 17.69768461203178, 0.0], [-101.6470657215454, 17.6973290657759, 0.0], [-101.6472968148473, 17.69709638901, 0.0], [-101.6473704325829, 17.69689483662612, 0.0], [-101.6472570027434, 17.69658161445769, 0.0], [-101.6472502579336, 17.69634281205021, 0.0], [-101.6472710196655, 17.69622643496209, 0.0], [-101.6472667766904, 17.69619240313541, 0.0], [-101.6468540540726, 17.69561649162413, 0.0], [-101.6467033813972, 17.6952525299029, 0.0], [-101.646519895226, 17.69481161182562, 0.0], [-101.646417523789, 17.69429629772675, 0.0], [-101.6463155366174, 17.6940632642201, 0.0], [-101.6461095589792, 17.69360462336788, 0.0], [-101.6460594191462, 17.69343812429414, 0.0], [-101.6459578000543, 17.69312184247029, 0.0], [-101.6457984188182, 17.69259872324449, 0.0], [-101.6456475125276, 17.6921172594719, 0.0], [-101.6455367457589, 17.69165152170869, 0.0], [-101.6453975209883, 17.69105401139081, 0.0], [-101.6452874176658, 17.69037067658899, 0.0], [-101.6451877900666, 17.68972333152831, 0.0], [-101.6451055300301, 17.68894324638984, 0.0], [-101.645064290387, 17.688484577695, 0.0], [-101.6450299662028, 17.68797420227793, 0.0], [-101.6450081969075, 17.68752925633196, 0.0], [-101.6449825915022, 17.6871711441186, 0.0], [-101.6449519914896, 17.68615339404494, 0.0], [-101.6449522624852, 17.68526921020558, 0.0], [-101.6449822740937, 17.68444924781836, 0.0], [-101.6450342765944, 17.68349495238815, 0.0], [-101.6450730451092, 17.68304944273334, 0.0], [-101.6451593220078, 17.68305503961079, 0.0], [-101.6451590407033, 17.68259968110992, 0.0], [-101.6451573289686, 17.68221337487901, 0.0], [-101.6451553919343, 17.68207702776346, 0.0], [-101.6450983558431, 17.68113537904694, 0.0], [-101.6451150002794, 17.68106964418397, 0.0], [-101.6451007940849, 17.68073368664031, 0.0], [-101.6450012469554, 17.68064492058291, 0.0], [-101.6448202906991, 17.68031826405331, 0.0], [-101.6446502547957, 17.68008549988863, 0.0], [-101.6443874278246, 17.67972383639934, 0.0], [-101.6441517315719, 17.6794745197758, 0.0], [-101.6440116990169, 17.67934122507436, 0.0], [-101.643893833238, 17.67923078677412, 0.0], [-101.643836618734, 17.6791757856549, 0.0], [-101.6436780684445, 17.67901233818581, 0.0], [-101.6435223261588, 17.67884990469358, 0.0], [-101.6434235121024, 17.67870713783576, 0.0], [-101.6433691091958, 17.67863003688786, 0.0], [-101.6430751708588, 17.6782025831629, 0.0], [-101.6429911050079, 17.67803318441558, 0.0], [-101.6429146905103, 17.6778779540393, 0.0], [-101.6428562596826, 17.67776134213222, 0.0], [-101.6428682130724, 17.6776461630305, 0.0], [-101.6428832537495, 17.67746387277084, 0.0], [-101.6429424082347, 17.67724601031135, 0.0], [-101.6429683264054, 17.6769811054012, 0.0], [-101.6430391500732, 17.67662512338095, 0.0], [-101.6433045922311, 17.67638192783604, 0.0], [-101.6434331676869, 17.67631844762617, 0.0], [-101.6435979782951, 17.67613246179945, 0.0], [-101.6435567642239, 17.67595798581401, 0.0], [-101.6434914589901, 17.67579593493439, 0.0], [-101.6433652730682, 17.67570090453932, 0.0], [-101.6430858638617, 17.6755591667174, 0.0], [-101.6429732384294, 17.67537049000754, 0.0], [-101.6428992720125, 17.6752450700479, 0.0], [-101.642797165869, 17.6750412761617, 0.0], [-101.6427408864782, 17.67492584247232, 0.0], [-101.6427852486204, 17.67461476008472, 0.0], [-101.6426569476607, 17.67435387649146, 0.0], [-101.642606473624, 17.67424620088487, 0.0], [-101.642689089933, 17.67387428396087, 0.0], [-101.6428779714502, 17.67385037165635, 0.0], [-101.6431234181105, 17.67382009524741, 0.0], [-101.6428835258387, 17.67364223636921, 0.0], [-101.6427689912642, 17.67348340629716, 0.0], [-101.6426825119983, 17.6732806944248, 0.0], [-101.6426174528447, 17.67312410106762, 0.0], [-101.6425286930797, 17.67279188668944, 0.0], [-101.6424932644088, 17.67257967271948, 0.0], [-101.6424074161101, 17.6720812198087, 0.0], [-101.6423774226988, 17.67164696741636, 0.0], [-101.6424054164692, 17.67138187487178, 0.0], [-101.6423566622252, 17.67111046258038, 0.0], [-101.6424733462488, 17.67071301896723, 0.0], [-101.6425634014904, 17.66989285304864, 0.0], [-101.6427415433199, 17.66942786826424, 0.0], [-101.642979013874, 17.66895136089687, 0.0], [-101.643063764887, 17.66877673985594, 0.0], [-101.6432514232831, 17.66842791934285, 0.0], [-101.6437041390645, 17.66804086893987, 0.0], [-101.6442113932914, 17.66802074464897, 0.0], [-101.6443712452581, 17.66832301440505, 0.0], [-101.644718785408, 17.66842882486405, 0.0], [-101.645254952571, 17.66818598780232, 0.0], [-101.6452940949842, 17.66812051923155, 0.0], [-101.6454081120996, 17.66793935659312, 0.0], [-101.6456416055193, 17.66775526083099, 0.0], [-101.6463510787826, 17.66759600265, 0.0], [-101.6466646159496, 17.66752597091857, 0.0], [-101.6468074730082, 17.66710426820336, 0.0], [-101.6469177126805, 17.66678300769548, 0.0], [-101.6469488869036, 17.66669692948984, 0.0], [-101.6471541987166, 17.66655989970666, 0.0], [-101.6474305195917, 17.6664022814906, 0.0], [-101.6476933337778, 17.66621882863093, 0.0], [-101.647851691356, 17.6659647254953, 0.0], [-101.6479922973096, 17.66571567854729, 0.0], [-101.648152164939, 17.66541732286568, 0.0], [-101.6485623778876, 17.66500913333178, 0.0], [-101.6487388347572, 17.66479997428199, 0.0], [-101.6486876925799, 17.664580411624, 0.0], [-101.648455268421, 17.66447248449044, 0.0], [-101.6483262948268, 17.66451410502139, 0.0], [-101.6481449000069, 17.66470002927947, 0.0], [-101.6476317504985, 17.66471695185642, 0.0], [-101.6473877711155, 17.66472496739745, 0.0], [-101.6472774665142, 17.66467419634597, 0.0], [-101.6467504435291, 17.66442190893809, 0.0], [-101.6464572764417, 17.66390845061067, 0.0], [-101.646344166237, 17.66404829125833, 0.0], [-101.6463787494909, 17.6644090291775, 0.0], [-101.645847290117, 17.66464170125068, 0.0], [-101.6458022523348, 17.66493969443512, 0.0], [-101.6455713573679, 17.6650875493298, 0.0], [-101.645537607031, 17.66526059643485, 0.0], [-101.6458385048776, 17.66540678878478, 0.0], [-101.6459773862968, 17.66584251996277, 0.0], [-101.6458008331483, 17.66600109852389, 0.0], [-101.6456858520327, 17.6661062008654, 0.0], [-101.6455736752486, 17.66620863110429, 0.0], [-101.6451778914356, 17.66635067149256, 0.0], [-101.6451031073025, 17.66637739165136, 0.0], [-101.6450311276231, 17.66640143967978, 0.0], [-101.6449469956933, 17.66642103392181, 0.0], [-101.644850711237, 17.66644953501336, 0.0], [-101.644785635407, 17.66647032660067, 0.0], [-101.6447080471811, 17.66647745093511, 0.0], [-101.6445528707425, 17.6664943716163, 0.0], [-101.6443244595496, 17.66652297016081, 0.0], [-101.6440038217334, 17.66663163015844, 0.0], [-101.6438939426558, 17.66642297056894, 0.0], [-101.643406911715, 17.66650935818032, 0.0], [-101.6430770103693, 17.6667941603897, 0.0], [-101.642875871678, 17.66723273549814, 0.0], [-101.6425066228576, 17.66731912412953, 0.0], [-101.6422379059078, 17.6673823612992, 0.0], [-101.6421163827168, 17.6673556362908, 0.0], [-101.6416479069054, 17.66725229889893, 0.0], [-101.6414880621277, 17.66708840273913, 0.0], [-101.6414242729478, 17.66683449442369, 0.0], [-101.6410765253494, 17.66690306684481, 0.0], [-101.6408297387319, 17.6668843525698, 0.0], [-101.6406624291364, 17.66691908425086, 0.0], [-101.6402931874595, 17.66680149525214, 0.0], [-101.6399107742255, 17.66647618366693, 0.0], [-101.6396459404468, 17.66651892706636, 0.0], [-101.6394383225011, 17.66654296686407, 0.0], [-101.639165393225, 17.66657412973485, 0.0], [-101.6387293738558, 17.66648147534035, 0.0], [-101.6382694568758, 17.66642266536912, 0.0], [-101.6381010252255, 17.66633886470337, 0.0], [-101.6379709204956, 17.66622162327097, 0.0], [-101.6379570826919, 17.66586299917702, 0.0], [-101.6377603953049, 17.66569803813818, 0.0], [-101.6375740318455, 17.66546447481647, 0.0], [-101.6374704756987, 17.66532795093994, 0.0], [-101.6372785879296, 17.66527901020331, 0.0], [-101.6371682635977, 17.66553886706627, 0.0], [-101.6370276545405, 17.66577027548275, 0.0], [-101.6367185333253, 17.66590993355085, 0.0], [-101.6366134111127, 17.66597674767084, 0.0], [-101.6362162553981, 17.66614645689318, 0.0], [-101.6359917371771, 17.66617589795203, 0.0], [-101.6358207758851, 17.66621127488825, 0.0], [-101.6356715067787, 17.66620788184608, 0.0], [-101.6354039361074, 17.66616058582123, 0.0], [-101.6352706322963, 17.66611683193506, 0.0], [-101.6350701368721, 17.6661886850689, 0.0], [-101.6349296182442, 17.66618835108862, 0.0], [-101.6346312811963, 17.66613867329415, 0.0], [-101.634310124932, 17.66606048857756, 0.0], [-101.6340246576633, 17.66616556307739, 0.0], [-101.6340209505439, 17.66631478688527, 0.0], [-101.633891435905, 17.66651088316923, 0.0], [-101.6337867192651, 17.66682699030756, 0.0], [-101.6335754727537, 17.66691783101591, 0.0], [-101.6333845741825, 17.66709177737228, 0.0], [-101.6333215591073, 17.66713945802149, 0.0], [-101.6329119633386, 17.66705292313613, 0.0], [-101.6326092032521, 17.66710447552755, 0.0], [-101.632445179004, 17.66715038892684, 0.0], [-101.6324210850054, 17.66716010147207, 0.0], [-101.6323395358248, 17.66720601565714, 0.0], [-101.6319563907074, 17.66721837286344, 0.0], [-101.6316765295077, 17.66725192257453, 0.0], [-101.6313599161617, 17.66731494129111, 0.0], [-101.6311449227982, 17.66736879972594, 0.0], [-101.6309487001466, 17.66731064027814, 0.0], [-101.6308421334922, 17.66718525501224, 0.0], [-101.6307930200777, 17.66713404118978, 0.0], [-101.6306614323464, 17.66703779366377, 0.0], [-101.6304731394795, 17.6668690008286, 0.0], [-101.630505652819, 17.66681297185682, 0.0], [-101.6303675850673, 17.66644181683429, 0.0], [-101.6304787943528, 17.66612129687522, 0.0], [-101.6306736039285, 17.66592074554359, 0.0], [-101.6307653479964, 17.66580243561162, 0.0], [-101.6307783226762, 17.66574592500018, 0.0], [-101.6308172464346, 17.66559140393539, 0.0], [-101.6308144744058, 17.66521525325093, 0.0], [-101.6306013354628, 17.66533445214343, 0.0], [-101.6303667189689, 17.6653459731182, 0.0], [-101.6301091061307, 17.66518879690549, 0.0], [-101.6298777936715, 17.665005131326, 0.0], [-101.6297665911771, 17.66505104379497, 0.0], [-101.6296581645685, 17.66525147807474, 0.0], [-101.6292927189448, 17.66512682657754, 0.0], [-101.6292291984068, 17.66483404336466, 0.0], [-101.6291040978006, 17.66480755043416, 0.0], [-101.6289564356451, 17.66479606769974, 0.0], [-101.6289110253691, 17.66489760937738, 0.0], [-101.6287210531244, 17.66500885957686, 0.0], [-101.6284310023165, 17.6650159146923, 0.0], [-101.6280885312057, 17.66499209057579, 0.0], [-101.6277345379161, 17.66505123864302, 0.0], [-101.6274975234633, 17.66493820873264, 0.0], [-101.6274021995093, 17.66476614114384, 0.0], [-101.6274707785308, 17.6646372283068, 0.0], [-101.6275161928375, 17.66445092086369, 0.0], [-101.6275346066355, 17.66433032840835, 0.0], [-101.6274411397995, 17.66425842807974, 0.0], [-101.6271416971385, 17.66432325050143, 0.0], [-101.6269989890068, 17.66433207492383, 0.0], [-101.6268532378768, 17.66428572518512, 0.0], [-101.6266277690783, 17.66405670559292, 0.0], [-101.626456349575, 17.66371056938547, 0.0], [-101.6261942947485, 17.66378914445658, 0.0], [-101.625983936485, 17.66387213579327, 0.0], [-101.6260686369765, 17.66420140073193, 0.0], [-101.6258981172832, 17.66444862829563, 0.0], [-101.6256970188518, 17.66465523717597, 0.0], [-101.6256026112992, 17.66475168280833, 0.0], [-101.6252299651079, 17.6650256425138, 0.0], [-101.624396329267, 17.66502105074924, 0.0], [-101.6240216252455, 17.66492462805284, 0.0], [-101.6237292925903, 17.66465219845756, 0.0], [-101.6235155416078, 17.66433600876231, 0.0], [-101.6233798796887, 17.66425638387339, 0.0], [-101.6233789878488, 17.66426805148111, 0.0], [-101.6230450386958, 17.6641109332979, 0.0], [-101.6229429680877, 17.66395356943859, 0.0], [-101.6228181468825, 17.66387165932185, 0.0], [-101.6227480240659, 17.66404771959159, 0.0], [-101.6225667761071, 17.66398191361753, 0.0], [-101.6223932456605, 17.66383965492799, 0.0], [-101.6223352475738, 17.66382277368932, 0.0], [-101.6220279175384, 17.66372580365138, 0.0], [-101.6218350240458, 17.66363678478831, 0.0], [-101.6214753001229, 17.66348991231879, 0.0], [-101.6212915033287, 17.66348991114935, 0.0], [-101.6200421588524, 17.66362676686166, 0.0], [-101.6197969181807, 17.66356533990482, 0.0], [-101.6196736221588, 17.6635691275726, 0.0], [-101.6190551551338, 17.66355396005821, 0.0], [-101.6188125509869, 17.66352553573282, 0.0], [-101.6184884139718, 17.66350847742231, 0.0], [-101.6182728072064, 17.66348952805628, 0.0], [-101.6179705342502, 17.6635179398006, 0.0], [-101.6176941070343, 17.66354066846244, 0.0], [-101.6175230750033, 17.66355771595132, 0.0], [-101.6174097135633, 17.6635709757522, 0.0], [-101.6172803251659, 17.66358423623498, 0.0], [-101.6167772112924, 17.66353117094313, 0.0], [-101.6165604615083, 17.66350842889706, 0.0], [-101.6163114342103, 17.66348379251331, 0.0], [-101.6158461124912, 17.66344399273284, 0.0], [-101.6154205800653, 17.66339661671964, 0.0], [-101.6154086340545, 17.66344587163201, 0.0], [-101.6149453244497, 17.66340417580233, 0.0], [-101.6144650058239, 17.66335474867568, 0.0], [-101.6140014245358, 17.66331011350956, 0.0], [-101.6135249189087, 17.66325008524404, 0.0], [-101.6130123111783, 17.66317210696515, 0.0], [-101.6126020345867, 17.66310899963974, 0.0], [-101.6121018482753, 17.66301386654693, 0.0], [-101.6117206475556, 17.66293536664648, 0.0], [-101.6112586826808, 17.6628306989711, 0.0], [-101.6108523609749, 17.66273215865995, 0.0], [-101.6105486926522, 17.66265981386672, 0.0], [-101.6103023627952, 17.66260503464432, 0.0], [-101.6099906192389, 17.66254346303466, 0.0], [-101.6099744654005, 17.66259425349904, 0.0], [-101.6098710890856, 17.6625757816208, 0.0], [-101.6096315508589, 17.66250549208291, 0.0], [-101.6096153970893, 17.66255012600585, 0.0], [-101.6091808957245, 17.66242544619547, 0.0], [-101.6089450687476, 17.66236233546376, 0.0], [-101.6090193736037, 17.6622699904815, 0.0], [-101.6088912971137, 17.6622336079478, 0.0], [-101.6084681059047, 17.66206891038428, 0.0], [-101.6079980730551, 17.66188574054395, 0.0], [-101.6076152455361, 17.66173030403791, 0.0], [-101.6072437982929, 17.66156142048548, 0.0], [-101.6071798716003, 17.66153369787243, 0.0], [-101.6068567377175, 17.66136521401005, 0.0], [-101.6065297520716, 17.66118372909125, 0.0], [-101.6064282544905, 17.66112255025323, 0.0], [-101.6060024616029, 17.66088010633947, 0.0], [-101.6058080317797, 17.66077181440537, 0.0], [-101.605593132844, 17.6606473438085, 0.0], [-101.6052263174548, 17.66043491024804, 0.0], [-101.6050906367172, 17.66035621235461, 0.0], [-101.6047357034861, 17.66014999082832, 0.0], [-101.6043666594752, 17.65988179671591, 0.0], [-101.6040990433958, 17.65968170376732, 0.0], [-101.603995153994, 17.65960166627007, 0.0], [-101.6036894776612, 17.65934603193384, 0.0]]]]}}]}