{"type": "FeatureCollection", "name": "Litibu", "crs": {"type": "name", "properties": {"name": "urn:ogc:def:crs:OGC:1.3:CRS84"}}, "features": [{"type": "Feature", "properties": {"Name": "Poli_Litubu"}, "geometry": {"type": "Polygon", "coordinates": [[[-105.4939232459836, 20.78738590084273, 0.0], [-105.4911268152705, 20.7852865254808, 0.0], [-105.4862193347819, 20.78821094068784, 0.0], [-105.4846088867812, 20.78914777768876, 0.0], [-105.4838626507677, 20.78957764600441, 0.0], [-105.4831504666804, 20.78984865276054, 0.0], [-105.4826530082864, 20.79003935976187, 0.0], [-105.4815393297216, 20.79032560229539, 0.0], [-105.4809380847953, 20.79043600348019, 0.0], [-105.4795928604439, 20.79112552394219, 0.0], [-105.4770296727496, 20.79429677027242, 0.0], [-105.4764171119396, 20.79504493729307, 0.0], [-105.4752882552543, 20.79644970793888, 0.0], [-105.4744149007708, 20.79778463299252, 0.0], [-105.4739246799718, 20.79909112675119, 0.0], [-105.475293290866, 20.79945887357985, 0.0], [-105.4762095038346, 20.79988717877106, 0.0], [-105.4776975324306, 20.80076679105105, 0.0], [-105.479470315646, 20.80203433282606, 0.0], [-105.4804357998429, 20.80278281589744, 0.0], [-105.4815190378995, 20.80346350163569, 0.0], [-105.4817015718327, 20.80358729844894, 0.0], [-105.4819020015874, 20.80373117018353, 0.0], [-105.4823350753362, 20.80404902632072, 0.0], [-105.4826464635338, 20.80393527245739, 0.0], [-105.4836279765817, 20.80200565120759, 0.0], [-105.4840875989986, 20.80112031625199, 0.0], [-105.4841556015208, 20.8010534001754, 0.0], [-105.4842880267198, 20.80069874538528, 0.0], [-105.484445505131, 20.80046453961058, 0.0], [-105.4845564552845, 20.80022364236908, 0.0], [-105.4849037219413, 20.79968325945459, 0.0], [-105.4850270288357, 20.79940265283026, 0.0], [-105.4850878719686, 20.79932904506011, 0.0], [-105.4851021875395, 20.79924874598426, 0.0], [-105.4852596630557, 20.79900450227677, 0.0], [-105.4855593558978, 20.79844227664352, 0.0], [-105.4860899507731, 20.79772710742139, 0.0], [-105.4862438437693, 20.79743267473354, 0.0], [-105.4863691060681, 20.79727207481511, 0.0], [-105.4865230016959, 20.79721854000131, 0.0], [-105.4866375257212, 20.79701444498265, 0.0], [-105.4867019448316, 20.79687057499276, 0.0], [-105.4869567675792, 20.79665309452767, 0.0], [-105.4871742223093, 20.79623494700661, 0.0], [-105.4872100113939, 20.79620818003388, 0.0], [-105.4877917215266, 20.79547180505264, 0.0], [-105.4880386643916, 20.7953011641827, 0.0], [-105.4889875497178, 20.79415319763196, 0.0], [-105.49182012488, 20.79119150144304, 0.0], [-105.4941521620627, 20.7891367722703, 0.0], [-105.4932360132704, 20.78785435192998, 0.0], [-105.4939232459836, 20.78738590084273, 0.0]]]}}]}